NORAD_CAT_ID,OBJECT_NAME,OBJECT_TYPE,EPOCH,MEAN_MOTION,ECCENTRICITY,INCLINATION,RA_OF_ASC_NODE,ARG_OF_PERICENTER,MEAN_ANOMALY,BSTAR,MEAN_MOTION_DOT,MEAN_MOTION_DDOT,TLE_LINE0,TLE_LINE1,TLE_LINE2,SEMIMAJOR_AXIS,PERIOD,APOGEE,PERIGEE,DECAYED
51852.0,STARLINK-3542,PAYLOAD,2024-07-18 09:07:15,15.08826677,0.0001434,53.2165,189.5224,109.329,250.7858,0.00013011,1.783e-05,0.0,0 STARLINK-3542,1 51852U 22022A   24200.38004210  .00001783  00000-0  13011-3 0  9993,2 51852  53.2165 189.5224 0001434 109.3290 250.7858 15.08826677131282,6917.921,95.438,540.778,538.794,0.0
51852.0,STARLINK-3542,PAYLOAD,2024-07-19 04:11:52,15.08842059,0.000154,53.2171,185.9544,106.2591,253.8571,2.1161e-06,-2.54e-06,0.0,0 STARLINK-3542,1 51852U 22022A   24201.17491519 -.00000254  00000-0  21161-5 0  9993,2 51852  53.2171 185.9544 0001540 106.2591 253.8571 15.08842059132652,6917.874,95.437,540.804,538.674,0.0
51852.0,STARLINK-3542,PAYLOAD,2024-07-19 08:58:02,15.08840718,0.000152,53.2171,185.0628,105.2275,254.8886,-1.1806e-05,-4.76e-06,0.0,0 STARLINK-3542,1 51852U 22022A   24201.37363625 -.00000476  00000-0 -11806-4 0  9992,2 51852  53.2171 185.0628 0001520 105.2275 254.8886 15.08840718131437,6917.878,95.438,540.795,538.692,0.0
51852.0,STARLINK-3542,PAYLOAD,2024-07-20 08:48:49,15.08838823,0.0001354,53.216,180.6029,102.7796,257.3347,9.0379e-05,1.151e-05,0.0,0 STARLINK-3542,1 51852U 22022A   24202.36723485  .00001151  00000-0  90379-4 0  9997,2 51852  53.2160 180.6029 0001354 102.7796 257.3347 15.08838823132835,6917.884,95.438,540.686,538.812,0.0
51852.0,STARLINK-3542,PAYLOAD,2024-07-20 15:10:21,15.08841388,0.000134,53.2162,179.4141,100.9186,259.1957,0.00010397,1.367e-05,0.0,0 STARLINK-3542,1 51852U 22022A   24202.63219332  .00001367  00000-0  10397-3 0  9998,2 51852  53.2162 179.4141 0001340 100.9186 259.1957 15.08841388131629,6917.876,95.437,540.668,538.814,0.0
51852.0,STARLINK-3542,PAYLOAD,2024-07-21 07:04:13,15.08840116,0.0001408,53.2169,176.4438,94.8709,265.2443,2.9132e-05,1.76e-06,0.0,0 STARLINK-3542,1 51852U 22022A   24203.29459835  .00000176  00000-0  29132-4 0  9990,2 51852  53.2169 176.4438 0001408  94.8709 265.2443 15.08840116131726,6917.88,95.438,540.719,538.771,0.0
51852.0,STARLINK-3542,PAYLOAD,2024-07-22 03:44:15,15.08832525,0.0001447,53.216,172.5753,75.9325,284.1828,-5.2406e-05,-1.122e-05,0.0,0 STARLINK-3542,1 51852U 22022A   24204.15573019 -.00001122  00000-0 -52406-4 0  9991,2 51852  53.2160 172.5753 0001447  75.9325 284.1828 15.08832525133107,6917.903,95.438,540.769,538.767,0.0
51852.0,STARLINK-3542,PAYLOAD,2024-07-22 06:55:01,15.08837296,0.0001463,53.217,171.9826,95.438,264.6779,-2.702e-05,-7.18e-06,0.0,0 STARLINK-3542,1 51852U 22022A   24204.28820673 -.00000718  00000-0 -27020-4 0  9990,2 51852  53.2170 171.9826 0001463  95.4380 264.6779 15.08837296131878,6917.889,95.438,540.766,538.742,0.0
51852.0,STARLINK-3542,PAYLOAD,2024-07-22 19:38:05,15.08840941,0.0001479,53.2159,169.6052,91.4006,268.7156,9.9332e-05,1.293e-05,0.0,0 STARLINK-3542,1 51852U 22022A   24204.81812197  .00001293  00000-0  99332-4 0  9993,2 51852  53.2159 169.6052 0001479  91.4006 268.7156 15.08840941133202,6917.878,95.437,540.766,538.719,0.0
51852.0,STARLINK-3542,PAYLOAD,2024-07-22 21:13:28,15.08842242,0.0001453,53.2162,169.3087,98.8537,261.2619,0.0001215,1.646e-05,0.0,0 STARLINK-3542,1 51852U 22022A   24204.88436062  .00001646  00000-0  12150-3 0  9997,2 51852  53.2162 169.3087 0001453  98.8537 261.2619 15.08842242131962,6917.874,95.437,540.744,538.733,0.0
51852.0,STARLINK-3542,PAYLOAD,2024-07-23 03:35:00,15.08852835,0.0001472,53.2157,168.1171,106.3271,253.7883,0.00014732,2.058e-05,0.0,0 STARLINK-3542,1 51852U 22022A   24205.14931321  .00002058  00000-0  14732-3 0  9991,2 51852  53.2157 168.1171 0001472 106.3271 253.7883 15.08852835133250,6917.841,95.437,540.724,538.688,0.0
51852.0,STARLINK-3542,PAYLOAD,2024-07-24 05:01:12,15.0883223,0.0001431,53.2158,163.3601,90.4148,269.7008,4.5782e-05,4.41e-06,0.0,0 STARLINK-3542,1 51852U 22022A   24206.20917564  .00000441  00000-0  45782-4 0  9996,2 51852  53.2158 163.3601 0001431  90.4148 269.7008 15.08832230133418,6917.904,95.438,540.759,538.779,0.0
51852.0,STARLINK-3542,PAYLOAD,2024-07-24 20:55:03,15.08845757,0.0001826,53.2153,160.3801,135.4045,224.7094,3.653e-05,2.93e-06,0.0,0 STARLINK-3542,1 51852U 22022A   24206.87156494  .00000293  00000-0  36530-4 0  9992,2 51852  53.2153 160.3801 0001826 135.4045 224.7094 15.08845757133511,6917.863,95.437,540.991,538.465,0.0
51852.0,STARLINK-3542,PAYLOAD,2024-07-25 06:27:21,15.08858562,0.0001347,53.2147,158.5996,88.7461,271.3685,0.00032817,4.941e-05,0.0,0 STARLINK-3542,1 51852U 22022A   24207.26899898  .00004941  00000-0  32817-3 0  9995,2 51852  53.2147 158.5996 0001347  88.7461 271.3685 15.08858562133576,6917.824,95.436,540.62,538.757,0.0
51852.0,STARLINK-3542,PAYLOAD,2024-07-26 03:07:24,15.08821571,0.0001499,53.2155,154.7365,85.6995,274.4169,-9.234e-05,-1.756e-05,0.0,0 STARLINK-3542,1 51852U 22022A   24208.13014591 -.00001756  00000-0 -92340-4 0  9992,2 51852  53.2155 154.7365 0001499  85.6995 274.4169 15.08821571133705,6917.937,95.439,540.839,538.765,0.0
51852.0,STARLINK-3542,PAYLOAD,2024-07-26 06:18:10,15.08823143,0.00014,53.2148,154.1369,100.1298,259.9852,-1.5489e-05,-5.34e-06,0.0,0 STARLINK-3542,1 51852U 22022A   24208.26262632 -.00000534  00000-0 -15489-4 0  9999,2 51852  53.2148 154.1369 0001400 100.1298 259.9852 15.08823143132473,6917.932,95.439,540.765,538.828,0.0
51852.0,STARLINK-3542,PAYLOAD,2024-07-27 02:58:10,15.08855468,0.0001321,53.2148,150.2768,80.7909,279.3232,0.00044824,6.856e-05,0.0,0 STARLINK-3542,1 51852U 22022A   24209.12373284  .00006856  00000-0  44824-3 0  9996,2 51852  53.2148 150.2768 0001321  80.7909 279.3232 15.08855468133853,6917.833,95.437,540.612,538.784,0.0
51852.0,STARLINK-3542,PAYLOAD,2024-07-27 20:27:25,15.08846669,9.45e-05,53.2163,147.0015,76.999,283.1108,0.00020878,3.037e-05,0.0,0 STARLINK-3542,1 51852U 22022A   24209.85237381  .00003037  00000-0  20878-3 0  9994,2 51852  53.2163 147.0015 0000945  76.9990 283.1108 15.08846669132719,6917.86,95.437,540.379,539.071,0.0
51852.0,STARLINK-3542,PAYLOAD,2024-07-28 02:48:58,15.08825651,0.0001419,53.2171,145.8162,85.8082,274.3073,0.00028065,4.18e-05,0.0,0 STARLINK-3542,1 51852U 22022A   24210.11734085  .00004180  00000-0  28065-3 0  9994,2 51852  53.2171 145.8162 0001419  85.8082 274.3073 15.08825651134000,6917.924,95.438,540.771,538.808,0.0
51852.0,STARLINK-3542,PAYLOAD,2024-07-28 12:21:17,15.08830224,0.000138,53.2165,144.0322,88.1856,271.9294,8.2684e-05,1.028e-05,0.0,0 STARLINK-3542,1 51852U 22022A   24210.51478353  .00001028  00000-0  82684-4 0  9997,2 51852  53.2165 144.0322 0001380  88.1856 271.9294 15.08830224132811,6917.91,95.438,540.73,538.821,0.0
51852.0,STARLINK-3542,PAYLOAD,2024-07-29 02:39:44,15.08840118,0.0001377,53.2161,141.3557,86.6112,273.5038,3.7741e-05,3.13e-06,0.0,0 STARLINK-3542,1 51852U 22022A   24211.11093613  .00000313  00000-0  37741-4 0  9996,2 51852  53.2161 141.3557 0001377  86.6112 273.5038 15.08840118134157,6917.88,95.438,540.698,538.792,0.0
51852.0,STARLINK-3542,PAYLOAD,2024-07-29 12:12:03,15.0884131,0.0001097,53.2158,139.5724,83.7463,276.3654,6.4023e-05,7.31e-06,0.0,0 STARLINK-3542,1 51852U 22022A   24211.50837511  .00000731  00000-0  64023-4 0  9999,2 51852  53.2158 139.5724 0001097  83.7463 276.3654 15.08841310132961,6917.876,95.437,540.5,538.982,0.0
51852.0,STARLINK-3542,PAYLOAD,2024-07-30 02:30:31,15.08842852,0.0001538,53.2167,136.8963,90.0104,270.1065,9.1707e-05,1.172e-05,0.0,0 STARLINK-3542,1 51852U 22022A   24212.10453350  .00001172  00000-0  91707-4 0  9990,2 51852  53.2167 136.8963 0001538  90.0104 270.1065 15.08842852133050,6917.872,95.437,540.801,538.673,0.0
51852.0,STARLINK-3542,PAYLOAD,2024-07-30 18:24:23,15.08831765,0.0001409,53.2165,133.9212,94.3131,265.8022,0.00030761,4.61e-05,0.0,0 STARLINK-3542,1 51852U 22022A   24212.76693412  .00004610  00000-0  30761-3 0  9999,2 51852  53.2165 133.9212 0001409  94.3131 265.8022 15.08831765134402,6917.906,95.438,540.745,538.796,0.0
51852.0,STARLINK-3542,PAYLOAD,2024-07-30 23:10:32,15.08837109,0.0001397,53.2165,133.0291,93.0621,267.0531,0.00023822,3.505e-05,0.0,0 STARLINK-3542,1 51852U 22022A   24212.96565310  .00003505  00000-0  23822-3 0  9998,2 51852  53.2165 133.0291 0001397  93.0621 267.0531 15.08837109133187,6917.889,95.438,540.721,538.788,0.0
51852.0,STARLINK-3542,PAYLOAD,2024-07-31 02:21:15,15.08881225,0.0001116,53.2159,132.4349,103.3761,256.7355,0.00037902,5.756e-05,0.0,0 STARLINK-3542,1 51852U 22022A   24213.09809976  .00005756  00000-0  37902-3 0  9996,2 51852  53.2159 132.4349 0001116 103.3761 256.7355 15.08881225134454,6917.754,95.435,540.391,538.847,0.0
51852.0,STARLINK-3542,PAYLOAD,2024-07-31 11:53:37,15.08838847,0.0001493,53.2159,130.6501,79.0264,281.0896,1.7842e-05,-4e-08,0.0,0 STARLINK-3542,1 51852U 22022A   24213.49557645 -.00000004  00000-0  17842-4 0  9997,2 51852  53.2159 130.6501 0001493  79.0264 281.0896 15.08838847134519,6917.884,95.438,540.782,538.716,0.0
51852.0,STARLINK-3542,PAYLOAD,2024-07-31 23:01:20,15.08831743,0.0001249,53.2153,128.5686,81.025,279.0883,-1.7344e-05,-5.64e-06,0.0,0 STARLINK-3542,1 51852U 22022A   24213.95926261 -.00000564  00000-0 -17344-4 0  9991,2 51852  53.2153 128.5686 0001249  81.0250 279.0883 15.08831743133330,6917.906,95.438,540.635,538.907,0.0
51852.0,STARLINK-3542,PAYLOAD,2024-08-01 00:36:43,15.08835603,0.0001468,53.2165,128.2712,76.1237,283.9919,-4.9144e-05,-1.07e-05,0.0,0 STARLINK-3542,1 51852U 22022A   24214.02550233 -.00001070  00000-0 -49144-4 0  9998,2 51852  53.2165 128.2712 0001468  76.1237 283.9919 15.08835603134595,6917.894,95.438,540.774,538.743,0.0
51852.0,STARLINK-3542,PAYLOAD,2024-08-01 22:52:05,15.08852126,0.0001175,53.2161,124.1028,115.8187,244.2926,2.5837e-05,1.23e-06,0.0,0 STARLINK-3542,1 51852U 22022A   24214.95284351  .00000123  00000-0  25837-4 0  9994,2 51852  53.2161 124.1028 0001175 115.8187 244.2926 15.08852126133480,6917.843,95.437,540.521,538.895,0.0
